HIMAWARI-8              
1 40267U 14060A   23318.51753407 -.00000252  00000+0  00000+0 0  9997
2 40267   0.0089 259.2434 0000781 314.0896 167.0337  1.00270189 33274
